{"type":"FeatureCollection","features":[{"type":"Feature","properties":{"name":"Alabama","code":"AL"},"geometry":{"type":"Polygon","coordinates":[[[-88.4687,31.8939],[-88.0979,34.8922],[-88.1546,34.9224],[-88.203,35.008],[-85.6052,34.9847],[-85.1844,32.8613],[-85.1142,32.7304],[-85.0698,32.5831],[-85.0071,32.5239],[-84.9718,32.4428],[-84.9835,32.3632],[-85.0081,32.3367],[-84.8918,32.2634],[-84.9301,32.2191],[-85.0587,32.136],[-85.0471,32.0874],[-85.0678,31.9674],[-85.1418,31.8393],[-85.1189,31.7327],[-85.1255,31.695],[-85.0582,31.6202],[-85.058,31.5708],[-85.0419,31.5447],[-85.0925,31.3629],[-85.1075,31.1865],[-85.0356,31.1082],[-85.0025,31.0007],[-87.5989,30.9974],[-87.5921,30.9515],[-87.6349,30.8659],[-87.5236,30.7383],[-87.4002,30.6572],[-87.4012,30.6044],[-87.4447,30.5075],[-87.4147,30.4573],[-87.3666,30.4366],[-87.4318,30.4032],[-87.4523,30.3441],[-87.5183,30.2804],[-87.8189,30.2283],[-87.8932,30.2392],[-87.8065,30.2798],[-87.7967,30.3242],[-87.865,30.3834],[-87.9334,30.4874],[-87.9017,30.5509],[-87.9311,30.6527],[-88.0084,30.685],[-88.062,30.6449],[-88.0649,30.5883],[-88.1038,30.5009],[-88.1057,30.4019],[-88.1362,30.3207],[-88.2578,30.3189],[-88.3116,30.3689],[-88.364,30.388],[-88.395,30.3694],[-88.4687,31.8939]]]}},{"type":"Feature","properties":{"name":"Florida","code":"FL"},"geometry":{"type":"MultiPolygon","coordinates":[[[[-81.8117,24.5687],[-81.7513,24.6535],[-81.4435,24.8134],[-81.3051,24.7552],[-81.2432,24.674],[-81.4019,24.6235],[-81.4439,24.6427],[-81.6852,24.5587],[-81.8125,24.5455],[-81.8117,24.5687]]],[[[-82.0281,24.4987],[-81.9839,24.5807],[-81.8687,24.5841],[-81.9189,24.4981],[-82.0281,24.4987]]],[[[-82.188,24.5747],[-82.1441,24.6225],[-82.0866,24.5901],[-82.1008,24.5333],[-82.1795,24.5295],[-82.188,24.5747]]],[[[-87.5921,30.9515],[-87.5989,30.9974],[-85.0025,31.0007],[-85.0061,30.977],[-84.9357,30.8787],[-84.9181,30.7721],[-84.8647,30.7115],[-82.2186,30.5644],[-82.2294,30.5208],[-82.201,30.4744],[-82.2103,30.4246],[-82.18,30.3686],[-82.0947,30.3608],[-82.0408,30.3701],[-82.0282,30.4474],[-82.0157,30.6017],[-82.0495,30.6555],[-82.0327,30.7507],[-81.9432,30.8274],[-81.9024,30.8208],[-81.8686,30.7928],[-81.7634,30.7738],[-81.7322,30.7496],[-81.5617,30.7156],[-81.5072,30.7229],[-81.4274,30.698],[-81.4431,30.6009],[-81.4341,30.5226],[-81.4108,30.482],[-81.3964,30.34],[-81.2704,29.8831],[-81.2567,29.7847],[-81.1636,29.5553],[-80.9662,29.148],[-80.5839,28.5977],[-80.5251,28.4595],[-80.5878,28.4109],[-80.6069,28.3365],[-80.59,28.178],[-80.5477,28.0488],[-80.3837,27.74],[-80.2537,27.3798],[-80.1534,27.1693],[-80.0463,26.8592],[-80.0321,26.7715],[-80.0354,26.6123],[-80.1096,26.0872],[-80.11,25.8183],[-80.155,25.6655],[-80.2291,25.7325],[-80.3015,25.6133],[-80.337,25.4656],[-80.3104,25.3897],[-80.2348,25.422],[-80.176,25.5212],[-80.1632,25.4522],[-80.3582,25.1532],[-80.4968,24.9993],[-80.6512,24.8661],[-80.9662,24.7079],[-81.1034,24.6695],[-81.1487,24.7105],[-80.8475,24.8518],[-80.6109,25.007],[-80.5166,25.0955],[-80.4954,25.1998],[-80.6505,25.1891],[-80.7477,25.1474],[-80.8121,25.186],[-80.8755,25.1743],[-80.9159,25.1413],[-81.0799,25.1188],[-81.1423,25.183],[-81.1709,25.2459],[-81.1468,25.4076],[-81.2899,25.6736],[-81.356,25.7035],[-81.3838,25.7768],[-81.6147,25.894],[-81.6726,25.8567],[-81.7271,25.9072],[-81.8088,26.1522],[-81.8446,26.3277],[-81.9236,26.4367],[-82.0139,26.4521],[-82.075,26.4221],[-82.1267,26.4363],[-82.1807,26.4763],[-82.2454,26.6011],[-82.2647,26.7568],[-82.3143,26.8584],[-82.4527,27.0794],[-82.5397,27.2543],[-82.6918,27.4372],[-82.743,27.5311],[-82.6507,27.5231],[-82.5143,27.7056],[-82.432,27.7681],[-82.4488,27.81],[-82.5539,27.8485],[-82.6227,27.7799],[-82.625,27.7327],[-82.705,27.6253],[-82.7331,27.613],[-82.7462,27.7313],[-82.8465,27.8543],[-82.8282,28.0201],[-82.8596,28.1741],[-82.7641,28.2443],[-82.6651,28.4844],[-82.6687,28.6957],[-82.7124,28.7209],[-82.7131,28.8003],[-82.7302,28.8502],[-82.6889,28.9056],[-82.7594,29.0066],[-82.7597,29.0542],[-82.8237,29.0989],[-82.7989,29.1145],[-82.8271,29.1584],[-82.9961,29.1781],[-83.0162,29.1254],[-83.0532,29.1308],[-83.079,29.1969],[-83.0747,29.248],[-83.1696,29.2904],[-83.1755,29.3447],[-83.2405,29.4332],[-83.2947,29.4379],[-83.3078,29.4689],[-83.4016,29.5233],[-83.4147,29.6705],[-83.5376,29.7231],[-83.6792,29.9185],[-83.9315,30.0391],[-84.0007,30.0962],[-84.063,30.1014],[-84.1791,30.0732],[-84.208,30.0848],[-84.2897,30.0572],[-84.3661,30.0087],[-84.3337,29.9237],[-84.3491,29.8968],[-84.4238,29.903],[-84.4703,29.9245],[-84.5359,29.9101],[-84.5774,29.8878],[-84.565,29.8102],[-84.6926,29.763],[-84.777,29.6922],[-85.0451,29.587],[-85.2597,29.6813],[-85.3526,29.6598],[-85.4028,29.7588],[-85.4165,29.8426],[-85.3847,29.9209],[-85.426,29.9499],[-85.4878,29.9612],[-85.6012,30.0563],[-85.6968,30.0969],[-85.8112,30.1783],[-85.9999,30.2708],[-86.2226,30.3436],[-86.4121,30.3803],[-86.633,30.3963],[-86.8506,30.381],[-87.5183,30.2804],[-87.4523,30.3441],[-87.4318,30.4032],[-87.3666,30.4366],[-87.4147,30.4573],[-87.4447,30.5075],[-87.4012,30.6044],[-87.4002,30.6572],[-87.5236,30.7383],[-87.6349,30.8659],[-87.5921,30.9515]]]]}},{"type":"Feature","properties":{"name":"Georgia","code":"GA"},"geometry":{"type":"Polygon","coordinates":[[[-85.6052,34.9847],[-83.62,34.9866],[-83.1086,35.0007],[-83.1406,34.9249],[-83.3239,34.7897],[-83.3201,34.7596],[-83.3532,34.7286],[-83.3387,34.682],[-83.2214,34.6099],[-83.1546,34.5882],[-83.0483,34.4933],[-82.9951,34.4725],[-82.8738,34.4715],[-82.8234,34.3589],[-82.745,34.2449],[-82.7154,34.1482],[-82.6428,34.0813],[-82.5568,33.9454],[-82.513,33.937],[-82.4312,33.8671],[-82.3245,33.82],[-82.2391,33.7309],[-82.1619,33.6106],[-82.1062,33.5956],[-82.0282,33.5449],[-81.9909,33.4942],[-81.9263,33.4629],[-81.9327,33.3435],[-81.8461,33.3038],[-81.8465,33.2417],[-81.7635,33.2036],[-81.7551,33.1516],[-81.6017,33.0847],[-81.502,33.0151],[-81.4996,32.9437],[-81.4206,32.8312],[-81.3971,32.6056],[-81.2749,32.5442],[-81.1948,32.4651],[-81.1949,32.4115],[-81.133,32.3348],[-81.128,32.2763],[-81.1535,32.2377],[-81.1194,32.1771],[-81.1133,32.1132],[-81.0383,32.0845],[-81.0067,32.1012],[-80.9432,32.0578],[-80.8431,32.0242],[-80.8484,31.9883],[-80.9112,31.9438],[-81.0771,31.7613],[-81.1306,31.7227],[-81.1335,31.6233],[-81.1731,31.5559],[-81.1773,31.5171],[-81.2586,31.4044],[-81.2793,31.3511],[-81.261,31.3039],[-81.2828,31.2443],[-81.3682,31.1365],[-81.4021,31.1254],[-81.4205,31.0167],[-81.4052,30.9082],[-81.4601,30.7699],[-81.4441,30.7097],[-81.5072,30.7229],[-81.5617,30.7156],[-81.7322,30.7496],[-81.7634,30.7738],[-81.8686,30.7928],[-81.9024,30.8208],[-81.9432,30.8274],[-82.0327,30.7507],[-82.0495,30.6555],[-82.0157,30.6017],[-82.0282,30.4474],[-82.0408,30.3701],[-82.0947,30.3608],[-82.18,30.3686],[-82.2103,30.4246],[-82.201,30.4744],[-82.2294,30.5208],[-82.2186,30.5644],[-84.8647,30.7115],[-84.9181,30.7721],[-84.9357,30.8787],[-85.0061,30.977],[-85.0114,31.0535],[-85.0356,31.1082],[-85.1075,31.1865],[-85.0925,31.3629],[-85.0419,31.5447],[-85.058,31.5708],[-85.0582,31.6202],[-85.1255,31.695],[-85.1189,31.7327],[-85.1418,31.8393],[-85.0678,31.9674],[-85.0471,32.0874],[-85.0587,32.136],[-84.9301,32.2191],[-84.8918,32.2634],[-85.0081,32.3367],[-84.9835,32.3632],[-84.9718,32.4428],[-85.0071,32.5239],[-85.0698,32.5831],[-85.1142,32.7304],[-85.1844,32.8613],[-85.6052,34.9847]]]}},{"type":"Feature","properties":{"name":"North Carolina","code":"NC"},"geometry":{"type":"Polygon","coordinates":[[[-84.3219,34.9884],[-84.2832,35.2266],[-84.2237,35.2691],[-84.1785,35.2407],[-84.0975,35.2474],[-84.0235,35.2958],[-84.0381,35.3484],[-84.0076,35.3717],[-84.0218,35.4074],[-83.9732,35.4526],[-83.7717,35.5621],[-83.4983,35.563],[-83.3473,35.6605],[-83.2972,35.6578],[-83.2554,35.7162],[-83.1983,35.7255],[-83.1615,35.7634],[-83.0485,35.7877],[-82.9784,35.7826],[-82.8997,35.8746],[-82.9106,35.9269],[-82.8607,35.9474],[-82.8161,35.924],[-82.7875,35.9522],[-82.7794,35.9925],[-82.6284,36.0621],[-82.5955,36.026],[-82.6109,35.9744],[-82.5579,35.9539],[-82.4646,36.0065],[-82.4095,36.0834],[-82.2977,36.1335],[-82.2657,36.1276],[-82.2113,36.159],[-82.1408,36.1362],[-82.1271,36.1044],[-82.0287,36.1243],[-81.9081,36.302],[-81.8332,36.3473],[-81.706,36.3385],[-81.7343,36.4133],[-81.6953,36.4679],[-81.7,36.5368],[-81.6775,36.5881],[-80.2952,36.544],[-75.867,36.5508],[-75.7964,36.2904],[-75.7183,36.1137],[-75.4961,35.7285],[-75.4587,35.5966],[-75.4868,35.3917],[-75.5336,35.2258],[-75.6355,35.2203],[-75.7579,35.1831],[-75.913,35.1196],[-76.1373,34.9879],[-76.3868,34.7846],[-76.5359,34.5886],[-76.5538,34.6283],[-76.6187,34.6726],[-76.727,34.6967],[-76.9063,34.6828],[-77.1368,34.6329],[-77.4629,34.4714],[-77.635,34.3596],[-77.764,34.2456],[-77.8292,34.1626],[-77.9602,33.8533],[-78.0068,33.8587],[-78.0187,33.8883],[-78.137,33.9122],[-78.2761,33.9124],[-78.384,33.9019],[-78.5411,33.8511],[-79.6753,34.8047],[-80.797,34.8239],[-80.782,34.9358],[-80.935,35.1074],[-81.0415,35.0447],[-81.058,35.0732],[-81.0368,35.1226],[-81.0429,35.1492],[-82.4113,35.2025],[-82.4556,35.1774],[-82.686,35.1245],[-82.7464,35.0791],[-82.7833,35.0856],[-83.1086,35.0007],[-84.3219,34.9884]]]}},{"type":"Feature","properties":{"name":"South Carolina","code":"SC"},"geometry":{"type":"Polygon","coordinates":[[[-83.3532,34.7286],[-83.3201,34.7596],[-83.3239,34.7897],[-83.1406,34.9249],[-83.1086,35.0007],[-82.7833,35.0856],[-82.7464,35.0791],[-82.686,35.1245],[-82.4556,35.1774],[-82.4113,35.2025],[-81.0429,35.1492],[-81.0368,35.1226],[-81.058,35.0732],[-81.0415,35.0447],[-80.935,35.1074],[-80.782,34.9358],[-80.797,34.8239],[-79.6753,34.8047],[-78.5411,33.8511],[-78.6723,33.8176],[-78.7727,33.7685],[-78.9381,33.6398],[-79.0846,33.4837],[-79.1354,33.4039],[-79.1806,33.238],[-79.1724,33.2066],[-79.2155,33.1556],[-79.3299,33.09],[-79.36,33.0067],[-79.4234,33.0151],[-79.4835,33.0013],[-79.5224,33.0354],[-79.5807,33.0064],[-79.6066,32.9722],[-79.5698,32.9267],[-79.6951,32.8504],[-79.7264,32.806],[-79.8684,32.7348],[-79.885,32.6844],[-80.0008,32.6059],[-80.077,32.6033],[-80.1484,32.5785],[-80.3384,32.4787],[-80.4135,32.4712],[-80.4657,32.4953],[-80.4846,32.461],[-80.4343,32.3752],[-80.4552,32.3265],[-80.5964,32.2735],[-80.7146,32.3257],[-80.766,32.2926],[-80.6692,32.2168],[-80.7215,32.1604],[-80.8587,32.0996],[-80.8855,32.0346],[-81.0067,32.1012],[-81.0383,32.0845],[-81.1133,32.1132],[-81.1194,32.1771],[-81.1535,32.2377],[-81.128,32.2763],[-81.133,32.3348],[-81.1949,32.4115],[-81.1948,32.4651],[-81.2749,32.5442],[-81.3971,32.6056],[-81.4206,32.8312],[-81.4996,32.9437],[-81.502,33.0151],[-81.6017,33.0847],[-81.7551,33.1516],[-81.7635,33.2036],[-81.8465,33.2417],[-81.8461,33.3038],[-81.9327,33.3435],[-81.9263,33.4629],[-81.9909,33.4942],[-82.0282,33.5449],[-82.1062,33.5956],[-82.1619,33.6106],[-82.2391,33.7309],[-82.3245,33.82],[-82.4312,33.8671],[-82.513,33.937],[-82.5568,33.9454],[-82.6428,34.0813],[-82.7154,34.1482],[-82.745,34.2449],[-82.8234,34.3589],[-82.8738,34.4715],[-82.9951,34.4725],[-83.0483,34.4933],[-83.1546,34.5882],[-83.2214,34.6099],[-83.3387,34.682],[-83.3532,34.7286]]]}},{"type":"Feature","properties":{"name":"Tennessee","code":"TN"},"geometry":{"type":"Polygon","coordinates":[[[-90.3007,35.0288],[-90.1971,35.0507],[-90.1601,35.1288],[-90.0906,35.1183],[-90.0979,35.25],[-90.1666,35.2746],[-90.1219,35.3045],[-90.0879,35.3633],[-90.1125,35.4102],[-90.0453,35.4154],[-90.0221,35.4574],[-90.0458,35.4965],[-90.0376,35.5503],[-89.9585,35.5417],[-89.9325,35.6079],[-89.8765,35.6267],[-89.9566,35.6955],[-89.9155,35.7549],[-89.8639,35.7476],[-89.7234,35.8094],[-89.7226,35.8737],[-89.6473,35.8949],[-89.6523,35.9215],[-89.7331,36.0006],[-89.6924,36.0205],[-89.68,36.0825],[-89.5921,36.1356],[-89.6238,36.1831],[-89.6926,36.225],[-89.678,36.2483],[-89.6024,36.2381],[-89.5543,36.2778],[-89.6118,36.3091],[-89.6005,36.343],[-89.5227,36.3448],[-89.5104,36.3784],[-89.5423,36.4201],[-89.521,36.4619],[-89.5392,36.4979],[-88.0505,36.5001],[-88.0338,36.5517],[-88.0705,36.6781],[-87.8496,36.6637],[-87.8532,36.6332],[-86.6064,36.6521],[-86.5513,36.638],[-86.5078,36.6524],[-85.8739,36.6236],[-85.4884,36.615],[-85.2906,36.6264],[-83.6907,36.5826],[-83.6754,36.6008],[-81.9341,36.5942],[-81.9226,36.6162],[-81.6469,36.6119],[-81.6775,36.5881],[-81.7,36.5368],[-81.6953,36.4679],[-81.7343,36.4133],[-81.706,36.3385],[-81.8332,36.3473],[-81.9081,36.302],[-82.0287,36.1243],[-82.1271,36.1044],[-82.1408,36.1362],[-82.2113,36.159],[-82.2657,36.1276],[-82.2977,36.1335],[-82.4095,36.0834],[-82.4646,36.0065],[-82.5579,35.9539],[-82.6109,35.9744],[-82.5955,36.026],[-82.6284,36.0621],[-82.7794,35.9925],[-82.7875,35.9522],[-82.8161,35.924],[-82.8607,35.9474],[-82.9106,35.9269],[-82.8997,35.8746],[-82.9784,35.7826],[-83.0485,35.7877],[-83.1615,35.7634],[-83.1983,35.7255],[-83.2554,35.7162],[-83.2972,35.6578],[-83.3473,35.6605],[-83.4983,35.563],[-83.7717,35.5621],[-83.9732,35.4526],[-84.0218,35.4074],[-84.0076,35.3717],[-84.0381,35.3484],[-84.0235,35.2958],[-84.0975,35.2474],[-84.1785,35.2407],[-84.2237,35.2691],[-84.2832,35.2266],[-84.3219,34.9884],[-85.385,34.983],[-88.203,35.008],[-88.2001,34.9956],[-90.3093,34.9957],[-90.3007,35.0288]]]}}]}